{"type": "FeatureCollection", "features": [ {"type": "Feature", "properties": {"norad_id": 66466, "name": "STARLINK-35388", "group": "last-30-days", "lat": 18.889114087478358, "lon": 152.2148523124127, "alt_km": 373.8474716215942, "timestamp": "2025-12-02T13:52:16.064940+00:00", "meta": {"OBJECT_NAME": "STARLINK-35388", "OBJECT_ID": "2025-262L", "EPOCH": "2025-12-02T06:00:02.999808", "MEAN_MOTION": 15.65428523, "ECCENTRICITY": 0.00017184, "INCLINATION": 42.9995, "RA_OF_ASC_NODE": 132.6314, "ARG_OF_PERICENTER": 272.245, "MEAN_ANOMALY": 66.7664, "EPHEMERIS_TYPE": 0, "CLASSIFICATION_TYPE": "U", "NORAD_CAT_ID": 66466, "ELEMENT_SET_NO": 999, "REV_AT_EPOCH": 395, "BSTAR": -0.023282904, "MEAN_MOTION_DOT": -0.02091834, "MEAN_MOTION_DDOT": 0}, "tle": {"line1": "1 66466U 25262L   25336.25003472 -.02091834  00000+0 -23283-1 0  9994", "line2": "2 66466  42.9995 132.6314 0001718 272.2450  66.7664 15.65428523  3950"}}, "geometry": {"type": "Point", "coordinates": [152.2148523124127, 18.889114087478358]}}, {"type": "Feature", "properties": {"norad_id": 66467, "name": "STARLINK-35682", "group": "last-30-days", "lat": 16.431383134013444, "lon": 149.13337506537445, "alt_km": 374.2799378760028, "timestamp": "2025-12-02T13:52:16.064953+00:00", "meta": {"OBJECT_NAME": "STARLINK-35682", "OBJECT_ID": "2025-262M", "EPOCH": "2025-12-02T06:00:02.999808", "MEAN_MOTION": 15.65433215, "ECCENTRICITY": 0.00018629, "INCLINATION": 42.9992, "RA_OF_ASC_NODE": 132.642, "ARG_OF_PERICENTER": 268.4752, "MEAN_ANOMALY": 66.6973, "EPHEMERIS_TYPE": 0, "CLASSIFICATION_TYPE": "U", "NORAD_CAT_ID": 66467, "ELEMENT_SET_NO": 999, "REV_AT_EPOCH": 395, "BSTAR": -0.02332876, "MEAN_MOTION_DOT": -0.02095899, "MEAN_MOTION_DDOT": 0}, "tle": {"line1": "1 66467U 25262M   25336.25003472 -.02095899  00000+0 -23329-1 0  9991", "line2": "2 66467  42.9992 132.6420 0001862 268.4752  66.6973 15.65433215  3954"}}, "geometry": {"type": "Point", "coordinates": [149.13337506537445, 16.431383134013444]}}, {"type": "Feature", "properties": {"norad_id": 66468, "name": "STARLINK-35331", "group": "last-30-days", "lat": 20.098602448432, "lon": 153.79040916851125, "alt_km": 373.74447859633983, "timestamp": "2025-12-02T13:52:16.064963+00:00", "meta": {"OBJECT_NAME": "STARLINK-35331", "OBJECT_ID": "2025-262N", "EPOCH": "2025-12-02T06:00:02.999808", "MEAN_MOTION": 15.65437022, "ECCENTRICITY": 0.00017876, "INCLINATION": 42.9993, "RA_OF_ASC_NODE": 132.6276, "ARG_OF_PERICENTER": 271.1293, "MEAN_ANOMALY": 69.793, "EPHEMERIS_TYPE": 0, "CLASSIFICATION_TYPE": "U", "NORAD_CAT_ID": 66468, "ELEMENT_SET_NO": 999, "REV_AT_EPOCH": 395, "BSTAR": -0.023394321, "MEAN_MOTION_DOT": -0.02101242, "MEAN_MOTION_DDOT": 0}, "tle": {"line1": "1 66468U 25262N   25336.25003472 -.02101242  00000+0 -23394-1 0  9994", "line2": "2 66468  42.9993 132.6276 0001787 271.1293  69.7930 15.65437022  3959"}}, "geometry": {"type": "Point", "coordinates": [153.79040916851125, 20.098602448432]}}, {"type": "Feature", "properties": {"norad_id": 66469, "name": "STARLINK-35451", "group": "last-30-days", "lat": 23.637516038144298, "lon": 158.66675947846446, "alt_km": 373.35798565512323, "timestamp": "2025-12-02T13:52:16.064972+00:00", "meta": {"OBJECT_NAME": "STARLINK-35451", "OBJECT_ID": "2025-262P", "EPOCH": "2025-12-02T06:00:02.999808", "MEAN_MOTION": 15.65428909, "ECCENTRICITY": 0.00017551, "INCLINATION": 42.999, "RA_OF_ASC_NODE": 132.6115, "ARG_OF_PERICENTER": 268.1893, "MEAN_ANOMALY": 78.4906, "EPHEMERIS_TYPE": 0, "CLASSIFICATION_TYPE": "U", "NORAD_CAT_ID": 66469, "ELEMENT_SET_NO": 999, "REV_AT_EPOCH": 395, "BSTAR": -0.023274347, "MEAN_MOTION_DOT": -0.02091226, "MEAN_MOTION_DDOT": 0}, "tle": {"line1": "1 66469U 25262P   25336.25003472 -.02091226  00000+0 -23274-1 0  9992", "line2": "2 66469  42.9990 132.6115 0001755 268.1893  78.4906 15.65428909  3950"}}, "geometry": {"type": "Point", "coordinates": [158.66675947846446, 23.637516038144298]}}, {"type": "Feature", "properties": {"norad_id": 66470, "name": "STARLINK-35655", "group": "last-30-days", "lat": 21.29317200261429, "lon": 155.38866080466482, "alt_km": 373.610419373068, "timestamp": "2025-12-02T13:52:16.064982+00:00", "meta": {"OBJECT_NAME": "STARLINK-35655", "OBJECT_ID": "2025-262Q", "EPOCH": "2025-12-02T06:00:02.999808", "MEAN_MOTION": 15.65431415, "ECCENTRICITY": 0.000173, "INCLINATION": 42.9991, "RA_OF_ASC_NODE": 132.6229, "ARG_OF_PERICENTER": 269.5466, "MEAN_ANOMALY": 73.2949, "EPHEMERIS_TYPE": 0, "CLASSIFICATION_TYPE": "U", "NORAD_CAT_ID": 66470, "ELEMENT_SET_NO": 999, "REV_AT_EPOCH": 395, "BSTAR": -0.023287719, "MEAN_MOTION_DOT": -0.02092436, "MEAN_MOTION_DDOT": 0}, "tle": {"line1": "1 66470U 25262Q   25336.25003472 -.02092436  00000+0 -23288-1 0  9993", "line2": "2 66470  42.9991 132.6229 0001730 269.5466  73.2949 15.65431415  3959"}}, "geometry": {"type": "Point", "coordinates": [155.38866080466482, 21.29317200261429]}}, {"type": "Feature", "properties": {"norad_id": 66471, "name": "STARLINK-35569", "group": "last-30-days", "lat": 22.47414369399584, "lon": 157.01469109722825, "alt_km": 373.5016039432239, "timestamp": "2025-12-02T13:52:16.064992+00:00", "meta": {"OBJECT_NAME": "STARLINK-35569", "OBJECT_ID": "2025-262R", "EPOCH": "2025-12-02T06:00:02.999808", "MEAN_MOTION": 15.65432473, "ECCENTRICITY": 0.00017305, "INCLINATION": 42.9992, "RA_OF_ASC_NODE": 132.6176, "ARG_OF_PERICENTER": 268.1203, "MEAN_ANOMALY": 76.6412, "EPHEMERIS_TYPE": 0, "CLASSIFICATION_TYPE": "U", "NORAD_CAT_ID": 66471, "ELEMENT_SET_NO": 999, "REV_AT_EPOCH": 395, "BSTAR": -0.02334556, "MEAN_MOTION_DOT": -0.02097041, "MEAN_MOTION_DDOT": 0}, "tle": {"line1": "1 66471U 25262R   25336.25003472 -.02097041  00000+0 -23346-1 0  9996", "line2": "2 66471  42.9992 132.6176 0001730 268.1203  76.6412 15.65432473  3953"}}, "geometry": {"type": "Point", "coordinates": [157.01469109722825, 22.47414369399584]}}, {"type": "Feature", "properties": {"norad_id": 66472, "name": "STARLINK-35567", "group": "last-30-days", "lat": 24.782803587671523, "lon": 160.34996681703743, "alt_km": 373.1166817213307, "timestamp": "2025-12-02T13:52:16.065004+00:00", "meta": {"OBJECT_NAME": "STARLINK-35567", "OBJECT_ID": "2025-262S", "EPOCH": "2025-12-02T06:00:02.999808", "MEAN_MOTION": 15.65428943, "ECCENTRICITY": 0.00016911, "INCLINATION": 42.9994, "RA_OF_ASC_NODE": 132.6079, "ARG_OF_PERICENTER": 271.372, "MEAN_ANOMALY": 77.2248, "EPHEMERIS_TYPE": 0, "CLASSIFICATION_TYPE": "U", "NORAD_CAT_ID": 66472, "ELEMENT_SET_NO": 999, "REV_AT_EPOCH": 395, "BSTAR": -0.02328875, "MEAN_MOTION_DOT": -0.02092299, "MEAN_MOTION_DDOT": 0}, "tle": {"line1": "1 66472U 25262S   25336.25003472 -.02092299  00000+0 -23289-1 0  9993", "line2": "2 66472  42.9994 132.6079 0001691 271.3720  77.2248 15.65428943  3955"}}, "geometry": {"type": "Point", "coordinates": [160.34996681703743, 24.782803587671523]}}, {"type": "Feature", "properties": {"norad_id": 66473, "name": "STARLINK-35568", "group": "last-30-days", "lat": 25.90850258258194, "lon": 162.06260209364382, "alt_km": 373.0420188734006, "timestamp": "2025-12-02T13:52:16.065014+00:00", "meta": {"OBJECT_NAME": "STARLINK-35568", "OBJECT_ID": "2025-262T", "EPOCH": "2025-12-02T06:00:02.999808", "MEAN_MOTION": 15.65437822, "ECCENTRICITY": 0.0001806, "INCLINATION": 42.9995, "RA_OF_ASC_NODE": 132.6028, "ARG_OF_PERICENTER": 270.0256, "MEAN_ANOMALY": 80.4796, "EPHEMERIS_TYPE": 0, "CLASSIFICATION_TYPE": "U", "NORAD_CAT_ID": 66473, "ELEMENT_SET_NO": 999, "REV_AT_EPOCH": 395, "BSTAR": -0.023372497, "MEAN_MOTION_DOT": -0.02099611, "MEAN_MOTION_DDOT": 0}, "tle": {"line1": "1 66473U 25262T   25336.25003472 -.02099611  00000+0 -23372-1 0  9992", "line2": "2 66473  42.9995 132.6028 0001806 270.0256  80.4796 15.65437822  3959"}}, "geometry": {"type": "Point", "coordinates": [162.06260209364382, 25.90850258258194]}}, {"type": "Feature", "properties": {"norad_id": 66474, "name": "STARLINK-35620", "group": "last-30-days", "lat": 27.01475087529434, "lon": 163.81023976517204, "alt_km": 372.88679685209263, "timestamp": "2025-12-02T13:52:16.065026+00:00", "meta": {"OBJECT_NAME": "STARLINK-35620", "OBJECT_ID": "2025-262U", "EPOCH": "2025-12-02T06:00:02.999808", "MEAN_MOTION": 15.65429393, "ECCENTRICITY": 0.00017539, "INCLINATION": 42.9993, "RA_OF_ASC_NODE": 132.5976, "ARG_OF_PERICENTER": 269.958, "MEAN_ANOMALY": 82.4728, "EPHEMERIS_TYPE": 0, "CLASSIFICATION_TYPE": "U", "NORAD_CAT_ID": 66474, "ELEMENT_SET_NO": 999, "REV_AT_EPOCH": 395, "BSTAR": -0.023292537, "MEAN_MOTION_DOT": -0.02092684, "MEAN_MOTION_DDOT": 0}, "tle": {"line1": "1 66474U 25262U   25336.25003472 -.02092684  00000+0 -23293-1 0  9998", "line2": "2 66474  42.9993 132.5976 0001753 269.9580  82.4728 15.65429393  3958"}}, "geometry": {"type": "Point", "coordinates": [163.81023976517204, 27.01475087529434]}}, {"type": "Feature", "properties": {"norad_id": 66475, "name": "STARLINK-35538", "group": "last-30-days", "lat": 28.097812658542292, "lon": 165.59100541055432, "alt_km": 372.7100995050887, "timestamp": "2025-12-02T13:52:16.065037+00:00", "meta": {"OBJECT_NAME": "STARLINK-35538", "OBJECT_ID": "2025-262V", "EPOCH": "2025-12-02T06:00:02.999808", "MEAN_MOTION": 15.65432553, "ECCENTRICITY": 0.00018051, "INCLINATION": 42.9996, "RA_OF_ASC_NODE": 132.5935, "ARG_OF_PERICENTER": 272.4759, "MEAN_ANOMALY": 81.8665, "EPHEMERIS_TYPE": 0, "CLASSIFICATION_TYPE": "U", "NORAD_CAT_ID": 66475, "ELEMENT_SET_NO": 999, "REV_AT_EPOCH": 395, "BSTAR": -0.023302663, "MEAN_MOTION_DOT": -0.02093755, "MEAN_MOTION_DDOT": 0}, "tle": {"line1": "1 66475U 25262V   25336.25003472 -.02093755  00000+0 -23303-1 0  9991", "line2": "2 66475  42.9996 132.5935 0001805 272.4759  81.8665 15.65432553  3957"}}, "geometry": {"type": "Point", "coordinates": [165.59100541055432, 28.097812658542292]}}]}